[{"OBJECT_NAME":"STARLINK-32547","OBJECT_ID":"2024-207H","EPOCH":"2026-03-09T22:20:27.777120","MEAN_MOTION":15.27587154,"ECCENTRICITY":0.00027134,"INCLINATION":43.0018,"RA_OF_ASC_NODE":279.9755,"ARG_OF_PERICENTER":260.3906,"MEAN_ANOMALY":99.6639,"EPHEMERIS_TYPE":0,"CLASSIFICATION_TYPE":"U","NORAD_CAT_ID":61919,"ELEMENT_SET_NO":999,"REV_AT_EPOCH":7475,"BSTAR":0.00090826903,"MEAN_MOTION_DOT":0.00024822,"MEAN_MOTION_DDOT":0},{"OBJECT_NAME":"HAWK-11C","OBJECT_ID":"2024-247E","EPOCH":"2026-03-09T12:17:35.407968","MEAN_MOTION":15.2884802,"ECCENTRICITY":0.00059001,"INCLINATION":45.0045,"RA_OF_ASC_NODE":114.8762,"ARG_OF_PERICENTER":329.704,"MEAN_ANOMALY":30.3502,"EPHEMERIS_TYPE":0,"CLASSIFICATION_TYPE":"U","NORAD_CAT_ID":62381,"ELEMENT_SET_NO":999,"REV_AT_EPOCH":6774,"BSTAR":0.00033290115,"MEAN_MOTION_DOT":9.223e-5,"MEAN_MOTION_DDOT":0}]
